[{"OBJECT_NAME":"THEA","OBJECT_ID":"2018-099AQ","EPOCH":"2026-03-09T22:33:02.658240","MEAN_MOTION":15.31454284,"ECCENTRICITY":0.00065849,"INCLINATION":97.4542,"RA_OF_ASC_NODE":137.8815,"ARG_OF_PERICENTER":275.4664,"MEAN_ANOMALY":84.5826,"EPHEMERIS_TYPE":0,"CLASSIFICATION_TYPE":"U","NORAD_CAT_ID":43796,"ELEMENT_SET_NO":999,"REV_AT_EPOCH":39748,"BSTAR":0.00074635274,"MEAN_MOTION_DOT":0.00022649,"MEAN_MOTION_DDOT":0},{"OBJECT_NAME":"STARLINK-36100","OBJECT_ID":"2025-286T","EPOCH":"2026-03-09T23:32:57.232608","MEAN_MOTION":15.30206221,"ECCENTRICITY":0.00014631,"INCLINATION":53.1607,"RA_OF_ASC_NODE":356.935,"ARG_OF_PERICENTER":120.9525,"MEAN_ANOMALY":239.1619,"EPHEMERIS_TYPE":0,"CLASSIFICATION_TYPE":"U","NORAD_CAT_ID":66942,"ELEMENT_SET_NO":999,"REV_AT_EPOCH":1539,"BSTAR":0.00087551696,"MEAN_MOTION_DOT":0.00025666,"MEAN_MOTION_DDOT":0}]
